OBJECT_NAME,OBJECT_ID,EPOCH,MEAN_MOTION,ECCENTRICITY,INCLINATION,RA_OF_ASC_NODE,ARG_OF_PERICENTER,MEAN_ANOMALY,EPHEMERIS_TYPE,CLASSIFICATION_TYPE,NORAD_CAT_ID,ELEMENT_SET_NO,REV_AT_EPOCH,BSTAR,MEAN_MOTION_DOT,MEAN_MOTION_DDOT
GEOSCAN 3 (RS92S3),2025-155T,2026-06-06T19:54:21.758400,15.35049128,.0005154,97.4536,127.5889,195.2754,164.8334,0,U,64893,999,7926,.60629E-3,.20575E-3,0
INNOSAT 3 (RS92S0),2025-155U,2026-06-06T19:26:22.233984,15.43095864,.0004574,97.4487,129.0637,178.8880,181.2378,0,U,64894,999,7936,.93423E-3,.41396E-3,0
KNACKSAT-2,1998-067XZ,2026-06-06T06:20:58.495488,15.58973490,.00105336,51.6302,349.3788,167.5745,192.5509,0,U,67683,999,1857,.81732863E-3,.64955E-3,0
