GEOSCAN 3 (RS92S3)      
1 64893U 25155T   26157.82941850  .00020575  00000+0  60629-3 0  9990
2 64893  97.4536 127.5889 0005154 195.2754 164.8334 15.35049128 79265
INNOSAT 3 (RS92S0)      
1 64894U 25155U   26157.80997956  .00041396  00000+0  93423-3 0  9999
2 64894  97.4487 129.0637 0004574 178.8880 181.2378 15.43095864 79360
KNACKSAT-2              
1 67683U 98067XZ  26157.26456592  .00064955  00000+0  81733-3 0  9993
2 67683  51.6302 349.3788 0010533 167.5745 192.5509 15.58973490 18571
